1 18257U 87006C   19061.91972640 +.00000229 +00000-0 +56320-4 0  9992
2 18257 074.0382 021.8021 0004174 096.7324 263.4315 14.57859274765969
1 18257U 87006C   19062.88043264  .00000235  00000-0  57554-4 0  9997
2 18257  74.0383  19.9754 0004191  93.8904 266.2739 14.57859842766370
1 18270U 65027Z   19061.60687122 -.00000117 +00000-0 -43383-3 0  9992
2 18270 090.3010 294.9725 0029091 263.7264 112.2328 12.96072114571456
1 18270U 65027Z   19061.92485250 -.00000062 +00000-0 -24322-3 0  9996
2 18270 090.3011 294.9813 0029073 262.8373 155.9415 12.96072221571490
1 18271U 65027AA  19061.66062852 +.00000468 +00000-0 +16145-2 0  9998
2 18271 090.3028 302.7990 0031950 286.5957 127.2947 12.96181920544186
1 18271U 65027AA  19062.66431852  .00000543  00000-0  18765-2 0  9993
2 18271  90.3027 302.8268 0031868 283.8782 130.8482 12.96182811544441
1 18274U 86052F   19061.69641032 +.00000211 +00000-0 +52436-4 0  9999
2 18274 074.0498 166.2702 0030196 030.3224 087.4740 14.57611860719054
1 18275U 81053LQ  19062.21430439  .00000590  00000-0  66807-3 0  9998
2 18275  82.9300 331.9118 0136752  62.6612  88.7138 13.64829345692861
1 18276U 87054D   19061.61003187 +.00000086 +00000-0 +72236-4 0  9999
2 18276 082.9286 113.9865 0015823 089.0105 030.5511 13.76392041588952
1 18278U 82055BA  19061.56991477 +.00000064 +00000-0 +12520-3 0  9994
2 18278 065.8311 184.3806 0028653 071.6853 021.6237 13.86973254682146
1 18278U 82055BA  19062.72861516  .00000061  00000-0  12296-3 0  9990
2 18278  65.8311 181.4594 0028617  70.8526  47.3853 13.86973577682491
1 18279U 82055BB  19062.08675431  .00000144  00000-0  17938-3 0  9999
2 18279  65.7997  55.8696 0068457 267.8699 153.7339 13.90625838676508
1 18282U 85094T   19061.57614737 +.00000227 +00000-0 +10119-2 0  9999
2 18282 082.6241 106.4021 0006306 121.9244 031.2687 12.75288358546256
1 18290U 86019RY  19061.37965432 +.00000017 +00000-0 +16807-4 0  9994
2 18290 097.9070 123.1255 0092947 315.2905 044.0820 14.43725214762342
1 18290U 86019RY  19061.93409879 +.00000018 +00000-0 +17128-4 0  9992
2 18290 097.9068 123.6409 0092927 313.5714 045.7789 14.43725265762429
1 18290U 86019RY  19062.69646008  .00000023  00000-0  18413-4 0  9997
2 18290  97.9067 124.3496 0092898 311.2075  48.1134 14.43725402783083
1 18302U 78026HD  19061.63058365 +.00000094 +00000-0 +10536-3 0  9991
2 18302 098.8111 292.7408 0243060 117.5960 300.3207 13.78234825705965
1 18302U 78026HD  19062.86564993  .00000107  00000-0  11541-3 0  9998
2 18302  98.8110 293.8891 0243102 114.2928 308.2728 13.78235148706478
1 18312U 87068A   19061.60066451 +.00000037 +00000-0 +20089-4 0  9992
2 18312 082.5531 249.6544 0011826 331.6639 028.3877 13.84733556593663
1 18312U 87068A   19061.88969134 +.00000041 +00000-0 +23391-4 0  9996
2 18312 082.5531 249.4248 0011806 330.7955 029.2544 13.84733573593706
1 18312U 87068A   19062.54000167  .00000040  00000-0  22777-4 0  9998
2 18312  82.5531 248.9082 0011768 328.8865  31.1598 13.84733622593842
1 18313U 87068B   19061.60033644 +.00000036 +00000-0 +18643-4 0  9993
2 18313 082.5541 254.7577 0009900 359.7141 000.4012 13.84178415593284
1 18313U 87068B   19061.88947913 +.00000038 +00000-0 +20999-4 0  9995
2 18313 082.5541 254.5282 0009880 358.8853 001.2283 13.84178419593320
1 18316U 87070A   19061.26543365 -.00000183 +00000-0 +00000-0 0  9995
2 18316 015.1883 356.9982 0012396 343.9769 203.1343 00.99332592102372
1 18316U 87070A   19062.27182010 -.00000164  00000-0  00000+0 0  9991
2 18316  15.1879 356.9881 0012365 344.1723 202.8323  0.99332319102432
1 18334U 87074A   19061.39414465 +.00000004 +00000-0 -34765-4 0  9992
2 18334 082.5716 172.5445 0014320 072.0704 349.4376 12.66263069454929
1 18334U 87074A   19061.80085507 +.00000003 +00000-0 -43323-4 0  9998
2 18334 082.5716 172.2829 0014308 071.2004 043.3881 12.66263054454972
1 18334U 87074A   19062.82837674  .00000006  00000-0 -27871-4 0  9994
2 18334  82.5716 171.6220 0014288  68.9762  47.2734 12.66263076455280
1 18335U 87074B   19061.53290133 +.00000031 +00000-0 +11433-3 0  9998
2 18335 082.5714 225.0511 0005063 047.7041 012.9735 12.62738532450906
1 18335U 87074B   19061.94204240 +.00000032 +00000-0 +12165-3 0  9991
2 18335 082.5715 224.7897 0005049 046.9135 072.7341 12.62738558450959
1 18336U 87074C   19061.52061084 +.00000024 +00000-0 +74481-4 0  9994
2 18336 082.5646 204.7264 0000440 323.9001 103.0121 12.63572180451828
1 18336U 87074C   19061.92751574 +.00000023 +00000-0 +65675-4 0  9992
2 18336 082.5647 204.4657 0000428 321.3458 155.5960 12.63572201451878
1 18337U 87074D   19061.50642193 +.00000015 +00000-0 +23005-4 0  9995
2 18337 082.5711 200.6451 0004188 154.5032 273.9359 12.64300461452687
1 18337U 87074D   19061.91313153 +.00000010 +00000-0 -26948-5 0  9997
2 18337 082.5712 200.3844 0004199 153.7549 324.8906 12.64300441452735
1 18338U 87074E   19061.49367913 +.00000009 +00000-0 -70986-5 0  9993
2 18338 082.5731 192.9533 0007576 143.5532 285.0210 12.64955579453420
1 18338U 87074E   19061.90123934 +.00000009 +00000-0 -71131-5 0  9995
2 18338 082.5731 192.6919 0007587 142.7400 340.8704 12.64955585453472
1 18339U 87074F   19061.41108602 -.00000001 +00000-0 -61311-4 0  9998
2 18339 082.5647 176.3791 0010865 120.7120 301.9435 12.65463000454022
1 18340U 87074G   19061.20794306 +.00000007 +00000-0 -22351-4 0  9995
2 18340 082.5710 317.2967 0040688 047.5371 109.0433 12.55550582442692
1 18340U 87074G   19061.82521421 +.00000007 +00000-0 -21176-4 0  9993
2 18340 082.5709 316.9074 0040674 046.1803 019.0738 12.55550580442770
1 18340U 87074G   19062.78011619  .00000007  00000-0 -22420-4 0  9995
2 18340  82.5707 316.3050 0040647  44.0800  15.1776 12.55550574443098
1 18350U 87078A   19061.45994314 +.00000012 +00000-0 +00000-0 0  9996
2 18350 014.8442 012.0854 0011760 318.3401 219.6893 00.98905168019696
1 18350U 87078A   19062.47355333  .00000001  00000-0  00000+0 0  9998
2 18350  14.8444  12.0760 0011761 318.6002 220.3460  0.98905506114180
1 18351U 87078B   19061.00882830 -.00000113 +00000-0 +00000-0 0  9990
2 18351 015.4298 003.4416 0016932 332.1284 209.9078 00.98689293100461
1 18351U 87078B   19062.04077212 -.00000139  00000-0  00000+0 0  9992
2 18351  15.4296   3.4317 0016942 332.3163 216.3621  0.98689651100451
1 18356U 87079B   19061.06591615 -.00000017 +00000-0 +00000-0 0  9993
2 18356 065.7345 047.9233 0018071 220.3686 313.2050 02.13102948244898
1 18356U 87079B   19062.49507088 -.00000020  00000-0  00000+0 0  9995
2 18356  65.7352  47.8754 0018062 220.3728 329.5975  2.13102962244982
1 18357U 87079C   19061.02538750 -.00000017 +00000-0 +00000-0 0  9991
2 18357 065.7322 047.8652 0018345 216.0487 003.5633 02.13102878228365
1 18360U 87079F   19061.52150722 -.00000020 +00000-0 +00000-0 0  9993
2 18360 065.7383 046.5030 0009067 266.4883 233.4143 02.13417417245077
1 18361U 87080A   19061.87825545 +.00000043 +00000-0 +56007-4 0  9992
2 18361 090.3253 355.7788 0106232 114.9811 246.2416 13.44469477542729
1 18362U 87080B   19061.92518609 +.00000038 +00000-0 +48346-4 0  9990
2 18362 090.3259 356.0248 0107522 132.4803 247.8640 13.44062830542368
1 18363U 87080C   19061.41090017 +.00000017 +00000-0 +13705-4 0  9991
2 18363 090.3257 355.8903 0106118 146.9316 334.2881 13.43796207542067
1 18363U 87080C   19061.91592475 +.00000023 +00000-0 +23211-4 0  9991
2 18363 090.3258 355.9067 0106164 145.5035 257.4125 13.43796259542136
1 18363U 87080C   19062.88954281  .00000029  00000-0  33956-4 0  9998
2 18363  90.3259 355.9383 0106244 142.7476 287.4238 13.43796325542519
1 18365U 87080E   19062.75579938  .00000060  00000-0  77607-4 0  9994
2 18365  90.3176 343.8491 0108526 207.6480 216.9899 13.51317523548082
1 18374U 87079G   19061.70907163 -.00000080 +00000-0 -17207-3 0  9994
2 18374 065.1625 182.8331 5643636 129.0180 296.4714 04.33810775489888
1 18374U 87079G   19062.63117094 -.00000089  00000-0 -21074-3 0  9999
2 18374  65.1624 182.4919 5643399 128.9676 296.5356  4.33810700489914
1 18375U 87079H   19061.18406326 +.00000005 +00000-0 -19195-2 0  9995
2 18375 065.1645 142.4509 5407608 270.9861 081.4682 04.00047094474070
1 18375U 87079H   19062.47017512 -.00000013  00000-0 -46535-2 0  9991
2 18375  65.1646 142.0847 5407756 270.9314 133.6990  4.00047097474119
1 18384U 87084A   19061.79126510 -.00000243 +00000-0 +00000-0 0  9999
2 18384 014.2149 347.7863 0003454 329.1817 214.5991 01.00391270114989
1 18384U 87084A   19062.79638118 -.00000245  00000-0  00000+0 0  9993
2 18384  14.2140 347.7762 0003443 330.0426 217.0096  1.00391058114981
1 18402U 87087A   19061.95005866 +.00000027 +00000-0 +12435-4 0  9999
2 18402 082.9231 029.4348 0050760 010.7421 349.4806 13.73674264572949
1 18402U 87087A   19062.89695314  .00000021  00000-0  59676-5 0  9999
2 18402  82.9233  28.7330 0050704   8.1226 352.0738 13.73674262573286
1 18403U 87087B   19061.38316257 +.00000008 +00000-0 -72568-5 0  9990
2 18403 082.9222 347.9972 0056342 239.4837 120.0752 13.76515262575787
1 18403U 87087B   19061.89198181 +.00000008 +00000-0 -68927-5 0  9994
2 18403 082.9223 347.6182 0056358 238.0251 121.5420 13.76515273575858
1 18403U 87087B   19062.40080117  .00000011  00000-0 -41877-5 0  9990
2 18403  82.9223 347.2392 0056375 236.5756 123.0003 13.76515270576154
1 18410U 87041C   19061.11245846 +.00000033 +00000-0 +71059-4 0  9994
2 18410 070.9875 306.9791 0205170 229.4062 285.3282 13.73397452593086
1 18410U 87041C   19061.97636819 +.00000038 +00000-0 +75705-4 0  9999
2 18410 070.9874 305.2843 0205139 228.1909 236.6888 13.73397579593201
1 18410U 87041C   19062.47592630  .00000045  00000-0  81731-4 0  9991
2 18410  70.9873 304.3042 0205118 227.4879 186.6149 13.73397673593520
1 18411U 87041D   19061.56939323 +.00000007 +00000-0 +44829-4 0  9990
2 18411 071.0308 268.7137 0187342 059.9041 331.9640 13.75715523595849
1 18411U 87041D   19061.94721936 +.00000011 +00000-0 +48554-4 0  9995
2 18411 071.0308 267.9713 0187347 059.3575 043.1834 13.75715566595890
